SPACEMOBILE-008         
1 69589U 26139A   26195.55824432 -.00000080  00000+0  12477-4 0  9997
2 69589  52.9947 138.2992 0005050  54.8997 305.2467 15.12801501  4129
SPACEMOBILE-009         
1 69590U 26139B   26195.56016190 -.00000039  00000+0  14846-4 0  9990
2 69590  52.9938 138.3056 0005292  50.8296 309.3164 15.12694817  4128
SPACEMOBILE-010         
1 69591U 26139C   26195.56320446  .00000106  00000+0  23070-4 0  9996
2 69591  52.9945 138.3273 0005220  42.8328 317.3069 15.12526901  4138
