OBJECT_NAME,OBJECT_ID,EPOCH,MEAN_MOTION,ECCENTRICITY,INCLINATION,RA_OF_ASC_NODE,ARG_OF_PERICENTER,MEAN_ANOMALY,EPHEMERIS_TYPE,CLASSIFICATION_TYPE,NORAD_CAT_ID,ELEMENT_SET_NO,REV_AT_EPOCH,BSTAR,MEAN_MOTION_DOT,MEAN_MOTION_DDOT
SPACEMOBILE-008,2026-139A,2026-07-14T13:23:52.309248,15.12801501,.000505,52.9947,138.2992,54.8997,305.2467,0,U,69589,999,412,.12477E-4,-.8E-6,0
SPACEMOBILE-009,2026-139B,2026-07-14T13:26:37.988160,15.12694817,.0005292,52.9938,138.3056,50.8296,309.3164,0,U,69590,999,412,.14846E-4,-.39E-6,0
SPACEMOBILE-010,2026-139C,2026-07-14T13:31:00.865344,15.12526901,.000522,52.9945,138.3273,42.8328,317.3069,0,U,69591,999,413,.2307E-4,.106E-5,0
